start=new Date('2023-06-21T00:00:00.000Z').valueOf();
sats=[{"CLASSIFICATION_TYPE":"U","DECAY_DATE":null,"ECCENTRICITY":"0.00011370","SITE":"AFETR","INCLINATION":"53.0557","RCS_SIZE":"LARGE","MEAN_ELEMENT_THEORY":"SGP4","OBJECT_NAME":"STARLINK-1502","REF_FRAME":"TEME","REV_AT_EPOCH":"16682","ELEMENT_SET_NO":"999","EPHEMERIS_TYPE":"0","CENTER_NAME":"EARTH","OBJECT_ID":"2020-038AL","NORAD_CAT_ID":"45764","GP_ID":"234390234","SEMIMAJOR_AXIS":"6925.382","APOAPSIS":"548.035","PERIAPSIS":"546.460","MEAN_ANOMALY":"260.5077","ARG_OF_PERICENTER":"99.6040","EPOCH":"2023-06-20T17:45:04.428576","LAUNCH_DATE":"2020-06-13","MEAN_MOTION":"15.06388987","MEAN_MOTION_DOT":"0.00017307","TIME_SYSTEM":"UTC","OBJECT_TYPE":"PAYLOAD","BSTAR":"0.00117830000000","RA_OF_ASC_NODE":"354.1420","TLE_LINE1":"1 45764U 20038AL  23171.73963459  .00017307  00000-0  11783-2 0  9999","FILE":"3938544","TLE_LINE2":"2 45764  53.0557 354.1420 0001137  99.6040 260.5077 15.06388987166827","PERIOD":"95.593","COUNTRY_CODE":"US","MEAN_MOTION_DDOT":"0.0000000000000"},{"SEMIMAJOR_AXIS":"6865.153","GP_ID":"234390485","NORAD_CAT_ID":"45766","APOAPSIS":"489.184","PERIAPSIS":"484.852","EPHEMERIS_TYPE":"0","ELEMENT_SET_NO":"999","CENTER_NAME":"EARTH","OBJECT_ID":"2020-038AN","OBJECT_NAME":"STARLINK-1509","REF_FRAME":"TEME","REV_AT_EPOCH":"16697","RCS_SIZE":"LARGE","MEAN_ELEMENT_THEORY":"SGP4","SITE":"AFETR","INCLINATION":"53.0492","ECCENTRICITY":"0.00031550","CLASSIFICATION_TYPE":"U","DECAY_DATE":null,"MEAN_MOTION_DDOT":"0.0000000000000","TLE_LINE2":"2 45766  53.0492 342.9988 0003155 113.8250 246.3078 15.26256122166971","PERIOD":"94.349","COUNTRY_CODE":"US","RA_OF_ASC_NODE":"342.9988","TLE_LINE1":"1 45766U 20038AN  23171.85000327  .00011544  00000-0  45211-3 0  9991","FILE":"3938544","TIME_SYSTEM":"UTC","MEAN_MOTION_DOT":"0.00011544","OBJECT_TYPE":"PAYLOAD","BSTAR":"0.00045211000000","MEAN_MOTION":"15.26256122","EPOCH":"2023-06-20T20:24:00.282528","ARG_OF_PERICENTER":"113.8250","LAUNCH_DATE":"2020-06-13","MEAN_ANOMALY":"246.3078"},{"SITE":"AFETR","INCLINATION":"53.0547","ECCENTRICITY":"0.00010880","DECAY_DATE":null,"CLASSIFICATION_TYPE":"U","GP_ID":"234390733","SEMIMAJOR_AXIS":"6925.376","NORAD_CAT_ID":"45767","PERIAPSIS":"546.487","APOAPSIS":"547.994","EPHEMERIS_TYPE":"0","ELEMENT_SET_NO":"999","OBJECT_ID":"2020-038AP","CENTER_NAME":"EARTH","OBJECT_NAME":"STARLINK-1511","REF_FRAME":"TEME","REV_AT_EPOCH":"16681","RCS_SIZE":"LARGE","MEAN_ELEMENT_THEORY":"SGP4","MEAN_MOTION_DOT":"0.00016710","TIME_SYSTEM":"UTC","OBJECT_TYPE":"PAYLOAD","BSTAR":"0.00113830000000","MEAN_MOTION":"15.06391172","EPOCH":"2023-06-20T18:54:04.604256","ARG_OF_PERICENTER":"105.0473","LAUNCH_DATE":"2020-06-13","MEAN_ANOMALY":"255.0636","MEAN_MOTION_DDOT":"0.0000000000000","TLE_LINE2":"2 45767  53.0547 353.9310 0001088 105.0473 255.0636 15.06391172166810","COUNTRY_CODE":"US","PERIOD":"95.593","FILE":"3938544","RA_OF_ASC_NODE":"353.9310","TLE_LINE1":"1 45767U 20038AP  23171.78755329  .00016710  00000-0  11383-2 0  9995"},{"REV_AT_EPOCH":"16682","OBJECT_NAME":"STARLINK-1521","REF_FRAME":"TEME","MEAN_ELEMENT_THEORY":"SGP4","RCS_SIZE":"LARGE","PERIAPSIS":"546.359","APOAPSIS":"548.118","SEMIMAJOR_AXIS":"6925.373","GP_ID":"234389984","NORAD_CAT_ID":"45768","OBJECT_ID":"2020-038AQ","CENTER_NAME":"EARTH","ELEMENT_SET_NO":"999","EPHEMERIS_TYPE":"0","ECCENTRICITY":"0.00012700","DECAY_DATE":null,"CLASSIFICATION_TYPE":"U","INCLINATION":"53.0543","SITE":"AFETR","COUNTRY_CODE":"US","PERIOD":"95.593","TLE_LINE2":"2 45768  53.0543 354.0146 0001270  76.3718 283.7412 15.06391903166824","FILE":"3938544","RA_OF_ASC_NODE":"354.0146","TLE_LINE1":"1 45768U 20038AQ  23171.76912819  .00008644  00000-0  59860-3 0  9993","MEAN_MOTION_DDOT":"0.0000000000000","LAUNCH_DATE":"2020-06-13","EPOCH":"2023-06-20T18:27:32.675616","ARG_OF_PERICENTER":"76.3718","MEAN_ANOMALY":"283.7412","OBJECT_TYPE":"PAYLOAD","BSTAR":"0.00059860000000","TIME_SYSTEM":"UTC","MEAN_MOTION_DOT":"0.00008644","MEAN_MOTION":"15.06391903"},{"MEAN_MOTION_DOT":"-0.00001426","TIME_SYSTEM":"UTC","OBJECT_TYPE":"PAYLOAD","BSTAR":"-0.00007689600000","MEAN_MOTION":"15.06398060","ARG_OF_PERICENTER":"112.9594","EPOCH":"2023-06-20T19:02:02.175936","LAUNCH_DATE":"2020-06-13","MEAN_ANOMALY":"247.1531","MEAN_MOTION_DDOT":"0.0000000000000","TLE_LINE2":"2 45769  53.0561  13.9034 0001291 112.9594 247.1531 15.06398060166540","PERIOD":"95.592","COUNTRY_CODE":"US","TLE_LINE1":"1 45769U 20038AR  23171.79308074 -.00001426  00000-0 -76896-4 0  9991","RA_OF_ASC_NODE":"13.9034","FILE":"3938544","SITE":"AFETR","INCLINATION":"53.0561","ECCENTRICITY":"0.00012910","CLASSIFICATION_TYPE":"U","DECAY_DATE":null,"NORAD_CAT_ID":"45769","GP_ID":"234389735","SEMIMAJOR_AXIS":"6925.355","APOAPSIS":"548.114","PERIAPSIS":"546.325","EPHEMERIS_TYPE":"0","ELEMENT_SET_NO":"999","CENTER_NAME":"EARTH","OBJECT_ID":"2020-038AR","REF_FRAME":"TEME","OBJECT_NAME":"STARLINK-1459","REV_AT_EPOCH":"16654","RCS_SIZE":"LARGE","MEAN_ELEMENT_THEORY":"SGP4"},{"SITE":"AFETR","INCLINATION":"53.0548","ECCENTRICITY":"0.00013830","DECAY_DATE":null,"CLASSIFICATION_TYPE":"U","GP_ID":"234390985","NORAD_CAT_ID":"45770","SEMIMAJOR_AXIS":"6925.390","PERIAPSIS":"546.297","APOAPSIS":"548.213","EPHEMERIS_TYPE":"0","ELEMENT_SET_NO":"999","OBJECT_ID":"2020-038AS","CENTER_NAME":"EARTH","REF_FRAME":"TEME","OBJECT_NAME":"STARLINK-1462","REV_AT_EPOCH":"16710","RCS_SIZE":"LARGE","MEAN_ELEMENT_THEORY":"SGP4","TIME_SYSTEM":"UTC","MEAN_MOTION_DOT":"0.00023607","OBJECT_TYPE":"PAYLOAD","BSTAR":"0.00159900000000","MEAN_MOTION":"15.06386566","EPOCH":"2023-06-20T20:41:31.776576","ARG_OF_PERICENTER":"98.5940","LAUNCH_DATE":"2020-06-13","MEAN_ANOMALY":"261.5205","MEAN_MOTION_DDOT":"0.0000000000000","TLE_LINE2":"2 45770  53.0548 333.5962 0001383  98.5940 261.5205 15.06386566167103","COUNTRY_CODE":"US","PERIOD":"95.593","FILE":"3938544","RA_OF_ASC_NODE":"333.5962","TLE_LINE1":"1 45770U 20038AS  23171.86217334  .00023607  00000-0  15990-2 0  9998"},{"MEAN_ANOMALY":"290.1033","LAUNCH_DATE":"2020-06-13","ARG_OF_PERICENTER":"70.0079","EPOCH":"2023-06-20T20:32:16.475136","MEAN_MOTION":"15.06395024","BSTAR":"0.00056742000000","OBJECT_TYPE":"PAYLOAD","MEAN_MOTION_DOT":"0.00008179","TIME_SYSTEM":"UTC","TLE_LINE1":"1 45771U 20038AT  23171.85574624  .00008179  00000-0  56742-3 0  9994","RA_OF_ASC_NODE":"333.6211","FILE":"3938544","PERIOD":"95.592","COUNTRY_CODE":"US","TLE_LINE2":"2 45771  53.0550 333.6211 0001142  70.0079 290.1033 15.06395024167102","MEAN_MOTION_DDOT":"0.0000000000000","CLASSIFICATION_TYPE":"U","DECAY_DATE":null,"ECCENTRICITY":"0.00011420","INCLINATION":"53.0550","SITE":"AFETR","MEAN_ELEMENT_THEORY":"SGP4","RCS_SIZE":"LARGE","REV_AT_EPOCH":"16710","REF_FRAME":"TEME","OBJECT_NAME":"STARLINK-1463","CENTER_NAME":"EARTH","OBJECT_ID":"2020-038AT","ELEMENT_SET_NO":"999","EPHEMERIS_TYPE":"0","APOAPSIS":"548.020","PERIAPSIS":"546.438","GP_ID":"234391233","NORAD_CAT_ID":"45771","SEMIMAJOR_AXIS":"6925.364"},{"RCS_SIZE":"LARGE","MEAN_ELEMENT_THEORY":"SGP4","OBJECT_NAME":"STARLINK-1470","REF_FRAME":"TEME","REV_AT_EPOCH":"16711","ELEMENT_SET_NO":"999","EPHEMERIS_TYPE":"0","OBJECT_ID":"2020-038AU","CENTER_NAME":"EARTH","GP_ID":"234389485","SEMIMAJOR_AXIS":"6925.345","NORAD_CAT_ID":"45772","PERIAPSIS":"546.470","APOAPSIS":"547.951","DECAY_DATE":null,"CLASSIFICATION_TYPE":"U","ECCENTRICITY":"0.00010690","SITE":"AFETR","INCLINATION":"53.0550","FILE":"3938544","TLE_LINE1":"1 45772U 20038AU  23171.84469131  .00009803  00000-0  67609-3 0  9999","RA_OF_ASC_NODE":"333.6684","TLE_LINE2":"2 45772  53.0550 333.6684 0001069  94.0684 266.0427 15.06400998167110","COUNTRY_CODE":"US","PERIOD":"95.592","MEAN_MOTION_DDOT":"0.0000000000000","MEAN_ANOMALY":"266.0427","ARG_OF_PERICENTER":"94.0684","EPOCH":"2023-06-20T20:16:21.329184","LAUNCH_DATE":"2020-06-13","MEAN_MOTION":"15.06400998","TIME_SYSTEM":"UTC","MEAN_MOTION_DOT":"0.00009803","OBJECT_TYPE":"PAYLOAD","BSTAR":"0.00067609000000"},{"MEAN_ANOMALY":"245.4583","LAUNCH_DATE":"2020-06-13","EPOCH":"2023-06-20T18:30:11.356128","ARG_OF_PERICENTER":"114.6444","MEAN_MOTION":"15.06403183","OBJECT_TYPE":"PAYLOAD","BSTAR":"0.00016528000000","TIME_SYSTEM":"UTC","MEAN_MOTION_DOT":"0.00002182","FILE":"3938544","RA_OF_ASC_NODE":"334.0055","TLE_LINE1":"1 45773U 20038AV  23171.77096477  .00002182  00000-0  16528-3 0  9998","COUNTRY_CODE":"US","PERIOD":"95.592","TLE_LINE2":"2 45773  53.0546 334.0055 0000374 114.6444 245.4583 15.06403183167106","MEAN_MOTION_DDOT":"0.0000000000000","DECAY_DATE":null,"CLASSIFICATION_TYPE":"U","ECCENTRICITY":"0.00003740","INCLINATION":"53.0546","SITE":"AFETR","MEAN_ELEMENT_THEORY":"SGP4","RCS_SIZE":"LARGE","REV_AT_EPOCH":"16710","REF_FRAME":"TEME","OBJECT_NAME":"STARLINK-1482","OBJECT_ID":"2020-038AV","CENTER_NAME":"EARTH","ELEMENT_SET_NO":"999","EPHEMERIS_TYPE":"0","PERIAPSIS":"546.945","APOAPSIS":"547.463","GP_ID":"234390235","NORAD_CAT_ID":"45773","SEMIMAJOR_AXIS":"6925.339"},{"TIME_SYSTEM":"UTC","MEAN_MOTION_DOT":"0.00016163","OBJECT_TYPE":"PAYLOAD","BSTAR":"0.00110200000000","MEAN_MOTION":"15.06382670","EPOCH":"2023-06-20T20:58:47.676288","ARG_OF_PERICENTER":"117.1209","LAUNCH_DATE":"2020-06-13","MEAN_ANOMALY":"242.9881","MEAN_MOTION_DDOT":"0.0000000000000","TLE_LINE2":"2 45774  53.0560 333.5385 0000995 117.1209 242.9881 15.06382670167110","PERIOD":"95.593","COUNTRY_CODE":"US","TLE_LINE1":"1 45774U 20038AW  23171.87416292  .00016163  00000-0  11020-2 0  9996","RA_OF_ASC_NODE":"333.5385","FILE":"3938544","SITE":"AFETR","INCLINATION":"53.0560","ECCENTRICITY":"0.00009950","CLASSIFICATION_TYPE":"U","DECAY_DATE":null,"GP_ID":"234390486","SEMIMAJOR_AXIS":"6925.402","NORAD_CAT_ID":"45774","APOAPSIS":"547.956","PERIAPSIS":"546.578","ELEMENT_SET_NO":"999","EPHEMERIS_TYPE":"0","CENTER_NAME":"EARTH","OBJECT_ID":"2020-038AW","REF_FRAME":"TEME","OBJECT_NAME":"STARLINK-1485","REV_AT_EPOCH":"16711","RCS_SIZE":"LARGE","MEAN_ELEMENT_THEORY":"SGP4"}];
